[{"OBJECT_NAME":"HIBARI","OBJECT_ID":"2021-102F","EPOCH":"2026-03-09T16:55:51.090816","MEAN_MOTION":15.29554512,"ECCENTRICITY":0.00120742,"INCLINATION":97.3381,"RA_OF_ASC_NODE":115.826,"ARG_OF_PERICENTER":186.5211,"MEAN_ANOMALY":173.5875,"EPHEMERIS_TYPE":0,"CLASSIFICATION_TYPE":"U","NORAD_CAT_ID":49400,"ELEMENT_SET_NO":999,"REV_AT_EPOCH":23897,"BSTAR":0.00042758039,"MEAN_MOTION_DOT":0.00012206,"MEAN_MOTION_DDOT":0},{"OBJECT_NAME":"STARLINK-35642","OBJECT_ID":"2025-257U","EPOCH":"2026-03-09T15:35:21.768864","MEAN_MOTION":15.30190026,"ECCENTRICITY":0.0001058,"INCLINATION":53.1586,"RA_OF_ASC_NODE":217.4734,"ARG_OF_PERICENTER":94.1495,"MEAN_ANOMALY":265.9627,"EPHEMERIS_TYPE":0,"CLASSIFICATION_TYPE":"U","NORAD_CAT_ID":66398,"ELEMENT_SET_NO":999,"REV_AT_EPOCH":1972,"BSTAR":0.0005005,"MEAN_MOTION_DOT":0.00014489,"MEAN_MOTION_DDOT":0}]
